[{"OBJECT_NAME":"OBJECT J","OBJECT_ID":"2023-085J","EPOCH":"2026-03-09T22:47:59.920512","MEAN_MOTION":15.31507187,"ECCENTRICITY":0.00067028,"INCLINATION":97.4828,"RA_OF_ASC_NODE":180.1819,"ARG_OF_PERICENTER":41.7877,"MEAN_ANOMALY":318.3875,"EPHEMERIS_TYPE":0,"CLASSIFICATION_TYPE":"U","NORAD_CAT_ID":57012,"ELEMENT_SET_NO":999,"REV_AT_EPOCH":15156,"BSTAR":0.00064525349,"MEAN_MOTION_DOT":0.00019595,"MEAN_MOTION_DDOT":0},{"OBJECT_NAME":"STARLINK-33881","OBJECT_ID":"2025-091E","EPOCH":"2026-03-09T23:46:02.215488","MEAN_MOTION":15.27586979,"ECCENTRICITY":0.00034596,"INCLINATION":43.008,"RA_OF_ASC_NODE":51.2276,"ARG_OF_PERICENTER":294.3484,"MEAN_ANOMALY":65.7007,"EPHEMERIS_TYPE":0,"CLASSIFICATION_TYPE":"U","NORAD_CAT_ID":63779,"ELEMENT_SET_NO":999,"REV_AT_EPOCH":4894,"BSTAR":0.0010132175,"MEAN_MOTION_DOT":0.00027733,"MEAN_MOTION_DDOT":0}]
